{
  "type": "FeatureCollection",
  "features": [
    {
      "type": "Feature",
      "properties": {
        "norad_id": 66511,
        "name": "STARLINK-35444",
        "group": "last-30-days",
        "lat": -22.58349193353076,
        "lon": 5.978747152901642,
        "alt_km": 398.5773415730937,
        "timestamp": "2025-12-06T20:37:54.813006+00:00",
        "meta_object_name": "STARLINK-35444",
        "meta_object_id": "2025-263AC",
        "meta_epoch": "2025-12-06T14:00:01.999872",
        "meta_mean_motion": 15.58012929,
        "meta_eccentricity": 0.00015007,
        "meta_inclination": 42.9996,
        "meta_ra_of_asc_node": 161.1022,
        "meta_arg_of_pericenter": 271.6224,
        "meta_mean_anomaly": 191.6217,
        "meta_ephemeris_type": 0,
        "meta_classification_type": "U",
        "meta_norad_cat_id": 66511,
        "meta_element_set_no": 999,
        "meta_rev_at_epoch": 464,
        "meta_bstar": -0.030868687,
        "meta_mean_motion_dot": -0.02115266,
        "meta_mean_motion_ddot": 0,
        "tle_line1": "1 66511U 25263AC  25340.58335648 -.02115266  00000+0 -30869-1 0  9994",
        "tle_line2": "2 66511  42.9996 161.1022 0001500 271.6224 191.6217 15.58012929  4646"
      },
      "geometry": {
        "type": "Point",
        "coordinates": [
          5.978747152901642,
          -22.58349193353076
        ]
      }
    },
    {
      "type": "Feature",
      "properties": {
        "norad_id": 66512,
        "name": "STARLINK-35366",
        "group": "last-30-days",
        "lat": -24.88734553785769,
        "lon": 9.317291434944025,
        "alt_km": 398.6815470104366,
        "timestamp": "2025-12-06T20:37:54.813016+00:00",
        "meta_object_name": "STARLINK-35366",
        "meta_object_id": "2025-263AD",
        "meta_epoch": "2025-12-06T14:00:01.999872",
        "meta_mean_motion": 15.58009704,
        "meta_eccentricity": 0.0001384,
        "meta_inclination": 42.9998,
        "meta_ra_of_asc_node": 161.0925,
        "meta_arg_of_pericenter": 268.5897,
        "meta_mean_anomaly": 198.4912,
        "meta_ephemeris_type": 0,
        "meta_classification_type": "U",
        "meta_norad_cat_id": 66512,
        "meta_element_set_no": 999,
        "meta_rev_at_epoch": 464,
        "meta_bstar": -0.030816443,
        "meta_mean_motion_dot": -0.02111769,
        "meta_mean_motion_ddot": 0,
        "tle_line1": "1 66512U 25263AD  25340.58335648 -.02111769  00000+0 -30816-1 0  9991",
        "tle_line2": "2 66512  42.9998 161.0925 0001384 268.5897 198.4912 15.58009704  4645"
      },
      "geometry": {
        "type": "Point",
        "coordinates": [
          9.317291434944025,
          -24.88734553785769
        ]
      }
    },
    {
      "type": "Feature",
      "properties": {
        "norad_id": 66513,
        "name": "STARLINK-35692",
        "group": "last-30-days",
        "lat": -21.40693637304958,
        "lon": 4.353618846879181,
        "alt_km": 398.5426092954849,
        "timestamp": "2025-12-06T20:37:54.813026+00:00",
        "meta_object_name": "STARLINK-35692",
        "meta_object_id": "2025-263AE",
        "meta_epoch": "2025-12-06T14:00:01.999872",
        "meta_mean_motion": 15.58008653,
        "meta_eccentricity": 0.00014655,
        "meta_inclination": 42.9996,
        "meta_ra_of_asc_node": 161.107,
        "meta_arg_of_pericenter": 272.2399,
        "meta_mean_anomaly": 189.0899,
        "meta_ephemeris_type": 0,
        "meta_classification_type": "U",
        "meta_norad_cat_id": 66513,
        "meta_element_set_no": 999,
        "meta_rev_at_epoch": 464,
        "meta_bstar": -0.030780752,
        "meta_mean_motion_dot": -0.02109573,
        "meta_mean_motion_ddot": 0,
        "tle_line1": "1 66513U 25263AE  25340.58335648 -.02109573  00000+0 -30781-1 0  9993",
        "tle_line2": "2 66513  42.9996 161.1070 0001465 272.2399 189.0899 15.58008653  4647"
      },
      "geometry": {
        "type": "Point",
        "coordinates": [
          4.353618846879181,
          -21.40693637304958
        ]
      }
    },
    {
      "type": "Feature",
      "properties": {
        "norad_id": 66514,
        "name": "SENTINEL-6B",
        "group": "last-30-days",
        "lat": -38.60626505368259,
        "lon": 153.88111228838682,
        "alt_km": 1317.5974071202845,
        "timestamp": "2025-12-06T20:37:54.813038+00:00",
        "meta_object_name": "SENTINEL-6B",
        "meta_object_id": "2025-264A",
        "meta_epoch": "2025-12-05T07:31:22.416096",
        "meta_mean_motion": 12.8587776,
        "meta_eccentricity": 0.00115487,
        "meta_inclination": 66.0393,
        "meta_ra_of_asc_node": 177.917,
        "meta_arg_of_pericenter": 268.403,
        "meta_mean_anomaly": 91.5665,
        "meta_ephemeris_type": 0,
        "meta_classification_type": "U",
        "meta_norad_cat_id": 66514,
        "meta_element_set_no": 999,
        "meta_rev_at_epoch": 233,
        "meta_bstar": 0.0002937849,
        "meta_mean_motion_dot": 1.1e-07,
        "meta_mean_motion_ddot": 0,
        "tle_line1": "1 66514U 25264A   25339.31345389  .00000011  00000+0  29378-3 0  9992",
        "tle_line2": "2 66514  66.0393 177.9170 0011548 268.4030  91.5665 12.85877760  2336"
      },
      "geometry": {
        "type": "Point",
        "coordinates": [
          153.88111228838682,
          -38.60626505368259
        ]
      }
    },
    {
      "type": "Feature",
      "properties": {
        "norad_id": 66516,
        "name": "STARLINK-35924",
        "group": "last-30-days",
        "lat": -25.745285032209356,
        "lon": 57.4257156883202,
        "alt_km": 377.88754742531273,
        "timestamp": "2025-12-06T20:37:54.813052+00:00",
        "meta_object_name": "STARLINK-35924",
        "meta_object_id": "2025-265A",
        "meta_epoch": "2025-12-06T14:00:01.999872",
        "meta_mean_motion": 15.65135617,
        "meta_eccentricity": 0.00011886,
        "meta_inclination": 43.0004,
        "meta_ra_of_asc_node": 90.2416,
        "meta_arg_of_pericenter": 281.3535,
        "meta_mean_anomaly": 281.0053,
        "meta_ephemeris_type": 0,
        "meta_classification_type": "U",
        "meta_norad_cat_id": 66516,
        "meta_element_set_no": 999,
        "meta_rev_at_epoch": 398,
        "meta_bstar": -0.022234571,
        "meta_mean_motion_dot": -0.01988019,
        "meta_mean_motion_ddot": 0,
        "tle_line1": "1 66516U 25265A   25340.58335648 -.01988019  00000+0 -22235-1 0  9992",
        "tle_line2": "2 66516  43.0004  90.2416 0001188 281.3535 281.0053 15.65135617  3983"
      },
      "geometry": {
        "type": "Point",
        "coordinates": [
          57.4257156883202,
          -25.745285032209356
        ]
      }
    },
    {
      "type": "Feature",
      "properties": {
        "norad_id": 66517,
        "name": "STARLINK-35937",
        "group": "last-30-days",
        "lat": -24.61719521457354,
        "lon": 59.133566307935595,
        "alt_km": 377.8500462872289,
        "timestamp": "2025-12-06T20:37:54.813064+00:00",
        "meta_object_name": "STARLINK-35937",
        "meta_object_id": "2025-265B",
        "meta_epoch": "2025-12-06T14:00:01.999872",
        "meta_mean_motion": 15.65135962,
        "meta_eccentricity": 0.00011522,
        "meta_inclination": 43.0002,
        "meta_ra_of_asc_node": 90.2373,
        "meta_arg_of_pericenter": 280.7827,
        "meta_mean_anomaly": 283.4943,
        "meta_ephemeris_type": 0,
        "meta_classification_type": "U",
        "meta_norad_cat_id": 66517,
        "meta_element_set_no": 999,
        "meta_rev_at_epoch": 400,
        "meta_bstar": -0.022253656,
        "meta_mean_motion_dot": -0.01989516,
        "meta_mean_motion_ddot": 0,
        "tle_line1": "1 66517U 25265B   25340.58335648 -.01989516  00000+0 -22254-1 0  9997",
        "tle_line2": "2 66517  43.0002  90.2373 0001152 280.7827 283.4943 15.65135962  4003"
      },
      "geometry": {
        "type": "Point",
        "coordinates": [
          59.133566307935595,
          -24.61719521457354
        ]
      }
    },
    {
      "type": "Feature",
      "properties": {
        "norad_id": 66518,
        "name": "STARLINK-35962",
        "group": "last-30-days",
        "lat": -23.47140417643409,
        "lon": 60.808169129431334,
        "alt_km": 377.77892564964804,
        "timestamp": "2025-12-06T20:37:54.813076+00:00",
        "meta_object_name": "STARLINK-35962",
        "meta_object_id": "2025-265C",
        "meta_epoch": "2025-12-06T14:00:01.999872",
        "meta_mean_motion": 15.65135903,
        "meta_eccentricity": 0.0001165,
        "meta_inclination": 43.0002,
        "meta_ra_of_asc_node": 90.2323,
        "meta_arg_of_pericenter": 280.0602,
        "meta_mean_anomaly": 286.1317,
        "meta_ephemeris_type": 0,
        "meta_classification_type": "U",
        "meta_norad_cat_id": 66518,
        "meta_element_set_no": 999,
        "meta_rev_at_epoch": 400,
        "meta_bstar": -0.022226883,
        "meta_mean_motion_dot": -0.01987418,
        "meta_mean_motion_ddot": 0,
        "tle_line1": "1 66518U 25265C   25340.58335648 -.01987418  00000+0 -22227-1 0  9997",
        "tle_line2": "2 66518  43.0002  90.2323 0001165 280.0602 286.1317 15.65135903  4007"
      },
      "geometry": {
        "type": "Point",
        "coordinates": [
          60.808169129431334,
          -23.47140417643409
        ]
      }
    }
  ]
}